{
    "links": {
        "self": "http://www.neowsapp.com/rest/v1/neo/3989172?api_key=iIulBulltgU6a56xZRHN4H3l9WmuAYTsLGpBGhQ2"
    },
    "id": "3989172",
    "neo_reference_id": "3989172",
    "name": "(2020 BQ7)",
    "designation": "2020 BQ7",
    "nasa_jpl_url": "http://ssd.jpl.nasa.gov/sbdb.cgi?sstr=3989172",
    "absolute_magnitude_h": 19.64,
    "estimated_diameter": {
        "kilometers": {
            "estimated_diameter_min": 0.313729225,
            "estimated_diameter_max": 0.7015198735
        },
        "meters": {
            "estimated_diameter_min": 313.7292249562,
            "estimated_diameter_max": 701.5198735305
        },
        "miles": {
            "estimated_diameter_min": 0.1949422422,
            "estimated_diameter_max": 0.4359041053
        },
        "feet": {
            "estimated_diameter_min": 1029.2953904054,
            "estimated_diameter_max": 2301.5744618737
        }
    },
    "is_potentially_hazardous_asteroid": false,
    "close_approach_data": [
        {
            "close_approach_date": "2017-05-29",
            "close_approach_date_full": "2017-May-29 04:42",
            "epoch_date_close_approach": 1496032920000,
            "relative_velocity": {
                "kilometers_per_second": "18.8151406331",
                "kilometers_per_hour": "67734.5062793177",
                "miles_per_hour": "42087.5880822794"
            },
            "miss_distance": {
                "astronomical": "0.0896426926",
                "lunar": "34.8710074214",
                "kilometers": "13410355.874024762",
                "miles": "8332808.7426432356"
            },
            "orbiting_body": "Merc"
        },
        {
            "close_approach_date": "2019-12-27",
            "close_approach_date_full": "2019-Dec-27 20:33",
            "epoch_date_close_approach": 1577478780000,
            "relative_velocity": {
                "kilometers_per_second": "32.2054006468",
                "kilometers_per_hour": "115939.4423284775",
                "miles_per_hour": "72040.2607068254"
            },
            "miss_distance": {
                "astronomical": "0.3423033215",
                "lunar": "133.1559920635",
                "kilometers": "51207847.790325205",
                "miles": "31819081.146509629"
            },
            "orbiting_body": "Earth"
        }
    ],
    "orbital_data": {
        "orbit_id": "5",
        "orbit_determination_date": "2020-02-17 05:04:44",
        "first_observation_date": "2020-01-22",
        "last_observation_date": "2020-02-15",
        "data_arc_in_days": 24,
        "observations_used": 41,
        "orbit_uncertainty": "8",
        "minimum_orbit_intersection": ".223589",
        "jupiter_tisserand_invariant": "3.627",
        "epoch_osculation": "2458872.5",
        "eccentricity": ".7389553097060274",
        "semi_major_axis": "1.820945567739117",
        "inclination": "15.17917356980447",
        "ascending_node_longitude": "141.1403791844579",
        "orbital_period": "897.5194580186138",
        "perihelion_distance": ".47534817177264",
        "perihelion_argument": "197.8232785057557",
        "aphelion_distance": "3.166542963705595",
        "perihelion_time": "2458801.840597074447",
        "mean_anomaly": "28.34187585119912",
        "mean_motion": ".4011055100629739",
        "equinox": "J2000",
        "orbit_class": {
            "orbit_class_type": "APO",
            "orbit_class_description": "Near-Earth asteroid orbits which cross the Earth’s orbit similar to that of 1862 Apollo",
            "orbit_class_range": "a (semi-major axis) > 1.0 AU; q (perihelion) < 1.017 AU"
        }
    },
    "is_sentry_object": false
}